BEIDOU-2 G6             
1 38953U 12059A   26129.91509594 -.00000165  00000+0  00000+0 0  9998
2 38953   4.3247  73.9171 0010812 319.8712 247.4407  1.00273207 49521
LUCH-5B                 
1 38977U 12061A   26130.03784288 -.00000126  00000+0  00000+0 0  9994
2 38977  10.4026  50.2527 0000870 182.5610 352.3900  1.00271997 49223
YAMAL 300K              
1 38978U 12061B   26130.14858995  .00000080  00000+0  00000+0 0  9992
2 38978   0.0099 282.2666 0000350 277.9922 264.1506  1.00270975 49258
STAR ONE C3             
1 38991U 12062A   26130.09745641 -.00000240  00000+0  00000+0 0  9994
2 38991   0.0140 275.9956 0002728 156.7022 115.3056  1.00271580 49381
EUTELSAT 21B            
1 38992U 12062B   26130.14350132  .00000139  00000+0  00000+0 0  9994
2 38992   0.0693 352.4731 0002943  56.4669 252.2584  1.00270508 49442
ECHOSTAR 16             
1 39008U 12065A   26130.17147005  .00000000  00000+0  00000+0 0  9999
2 39008   0.0137 268.0911 0001348 151.0146 169.1094  1.00266398 49260
YAOGAN-16 01A           
1 39011U 12066A   26130.05330944 -.00000014  00000+0  73313-4 0  9995
2 39011  63.3559  28.2949 0432547  26.8244 335.4453 13.45512967661016
YAOGAN-16 01B           
1 39012U 12066B   26130.05781545 -.00000029  00000+0  59571-4 0  9999
2 39012  63.3563  28.5024 0432717  26.5684 335.6827 13.45510866660970
YAOGAN-16 01C           
1 39013U 12066C   26130.20607638  .00000003  00000+0  90315-4 0  9999
2 39013  63.3568  27.6110 0432810  26.1342 336.0844 13.45502599661028
ZHONGXING-12            
1 39017U 12067A   26130.15025016 -.00000198  00000+0  00000+0 0  9995
2 39017   0.0470  94.5931 0003337 307.2999 327.6660  1.00271229 49129
PLEIADES 1B             
1 39019U 12068A   26130.21135896  .00000095  00000+0  30212-4 0  9991
2 39019  98.1945 205.7838 0001125  99.2697 260.8629 14.58572665715313
EUTELSAT 70B            
1 39020U 12069A   26130.12631654 -.00000034  00000+0  00000+0 0  9998
2 39020   0.0683  11.0228 0004764  31.2054 301.6739  1.00272363 49122
YAMAL 402               
1 39022U 12070A   26130.19438045  .00000096  00000+0  00000+0 0  9995
2 39022   1.1670  84.5976 0003918 320.7512 307.5355  1.00271519 49011
GOKTURK 2               
1 39030U 12073A   26130.17279659  .00000215  00000+0  38464-4 0  9992
2 39030  97.6847 329.5061 0002153  90.1921 269.9536 14.75504600718904
SKYNET 5D               
1 39034U 12075A   26130.16086705  .00000108  00000+0  00000+0 0  9996
2 39034   0.0689 357.0737 0003751  56.9059 284.6595  1.00273003 48777
MEXSAT 3                
1 39035U 12075B   26130.01833442 -.00000017  00000+0  00000+0 0  9999
2 39035   0.0171 267.7445 0001418 164.5665  47.3372  1.00269567  6674
COSMOS 2482 (RODNIK-S 4)
1 39057U 13001A   26130.12888076  .00000213  00000+0  14615-2 0  9995
2 39057  82.4983 244.0301 0028753 108.0854 252.3361 12.42996022603980
COSMOS 2483 (RODNIK-S 5)
1 39058U 13001B   26130.23671667  .00000143  00000+0  94297-3 0  9991
2 39058  82.4998 238.5533 0017804  96.7547 263.5560 12.44024472596876
COSMOS 2484 (RODNIK-S 6)
1 39059U 13001C   26130.23354824  .00000152  00000+0  10253-2 0  9994
2 39059  82.5016 245.4865 0027493 116.4102 243.9804 12.42938627603849
TDRS 11                 
1 39070U 13004A   26130.17653329  .00000089  00000+0  00000+0 0  9990
2 39070   3.4661  30.6103 0005353   7.5829  78.9344  1.00269335 46319
GLOBALSTAR M097         
1 39072U 13005A   26129.99564464 -.00000142  00000+0 -21405-3 0  9990
2 39072  52.0078 359.5910 0000582  89.4714 270.6220 12.62250877612081
GLOBALSTAR M093         
1 39073U 13005B   26130.04850758 -.00000096  00000+0  42660-4 0  9997
2 39073  52.0126 352.7650 0000476  86.4544 273.6377 12.62264916612043
GLOBALSTAR M094         
1 39074U 13005C   26130.04852064 -.00000092  00000+0  65742-4 0  9992
2 39074  51.9959 266.9200 0000521 134.9335 225.1574 12.62268127613658
GLOBALSTAR M096         
1 39075U 13005D   26129.98269613 -.00000090  00000+0  75362-4 0  9993
2 39075  52.0084 315.8920 0000684 110.3656 249.7284 12.62264719612569
GLOBALSTAR M078         
1 39076U 13005E   26130.11396198 -.00000032  00000+0  40038-3 0  9997
2 39076  51.9896  39.5502 0000940 141.9827 218.1106 12.62261864611201
GLOBALSTAR M095         
1 39077U 13005F   26129.98239495 -.00000097  00000+0  39610-4 0  9993
2 39077  52.0103  37.5020 0000374 106.7432 253.3476 12.62267422611049
AMAZONAS 3              
1 39078U 13006A   26130.17155670 -.00000273  00000+0  00000+0 0  9992
2 39078   0.0310 145.0183 0001385 269.9817 173.7574  1.00270684 44532
AZERSPACE 1             
1 39079U 13006B   26130.16642174  .00000142  00000+0  00000+0 0  9996
2 39079   0.0406  88.2119 0000961 338.9890 266.6712  1.00272862 48421
LANDSAT 8               
1 39084U 13008A   26130.18784772  .00000204  00000+0  55151-4 0  9998
2 39084  98.1841 200.8735 0001342 103.4706 256.6642 14.57141896692366
SARAL                   
1 39086U 13009A   26130.19255484  .00000046  00000+0  32772-4 0  9993
2 39086  98.5563 317.2406 0002717  57.7690 302.3757 14.32846533690166
SAPPHIRE                
1 39088U 13009C   26130.09739878  .00000069  00000+0  39118-4 0  9994
2 39088  98.4255 310.4595 0011302   8.8518 351.2865 14.35229993691112
