OBJECT_NAME,OBJECT_ID,EPOCH,MEAN_MOTION,ECCENTRICITY,INCLINATION,RA_OF_ASC_NODE,ARG_OF_PERICENTER,MEAN_ANOMALY,EPHEMERIS_TYPE,CLASSIFICATION_TYPE,NORAD_CAT_ID,ELEMENT_SET_NO,REV_AT_EPOCH,BSTAR,MEAN_MOTION_DOT,MEAN_MOTION_DDOT
BEIDOU-2 G6,2012-059A,2026-05-09T21:57:44.289216,1.00273207,.0010812,4.3247,73.9171,319.8712,247.4407,0,U,38953,999,4952,0,-.165E-5,0
LUCH-5B,2012-061A,2026-05-10T00:54:29.624832,1.00271997,.000087,10.4026,50.2527,182.5610,352.3900,0,U,38977,999,4922,0,-.126E-5,0
YAMAL 300K,2012-061B,2026-05-10T03:33:58.171680,1.00270975,.000035,0.0099,282.2666,277.9922,264.1506,0,U,38978,999,4925,0,.8E-6,0
STAR ONE C3,2012-062A,2026-05-10T02:20:20.233824,1.00271580,.0002728,0.0140,275.9956,156.7022,115.3056,0,U,38991,999,4938,0,-.24E-5,0
EUTELSAT 21B,2012-062B,2026-05-10T03:26:38.514048,1.00270508,.0002943,0.0693,352.4731,56.4669,252.2584,0,U,38992,999,4944,0,.139E-5,0
ECHOSTAR 16,2012-065A,2026-05-10T04:06:55.012320,1.00266398,.0001348,0.0137,268.0911,151.0146,169.1094,0,U,39008,999,4926,0,0,0
YAOGAN-16 01A,2012-066A,2026-05-10T01:16:45.935616,13.45512967,.0432547,63.3559,28.2949,26.8244,335.4453,0,U,39011,999,66101,.73313E-4,-.14E-6,0
YAOGAN-16 01B,2012-066B,2026-05-10T01:23:15.254880,13.45510866,.0432717,63.3563,28.5024,26.5684,335.6827,0,U,39012,999,66097,.59571E-4,-.29E-6,0
YAOGAN-16 01C,2012-066C,2026-05-10T04:56:44.999232,13.45502599,.043281,63.3568,27.6110,26.1342,336.0844,0,U,39013,999,66102,.90315E-4,.3E-7,0
ZHONGXING-12,2012-067A,2026-05-10T03:36:21.613824,1.00271229,.0003337,0.0470,94.5931,307.2999,327.6660,0,U,39017,999,4912,0,-.198E-5,0
PLEIADES 1B,2012-068A,2026-05-10T05:04:21.414144,14.58572665,.0001125,98.1945,205.7838,99.2697,260.8629,0,U,39019,999,71531,.30212E-4,.95E-6,0
EUTELSAT 70B,2012-069A,2026-05-10T03:01:53.749056,1.00272363,.0004764,0.0683,11.0228,31.2054,301.6739,0,U,39020,999,4912,0,-.34E-6,0
YAMAL 402,2012-070A,2026-05-10T04:39:54.470880,1.00271519,.0003918,1.1670,84.5976,320.7512,307.5355,0,U,39022,999,4901,0,.96E-6,0
GOKTURK 2,2012-073A,2026-05-10T04:08:49.625376,14.75504600,.0002153,97.6847,329.5061,90.1921,269.9536,0,U,39030,999,71890,.38464E-4,.215E-5,0
SKYNET 5D,2012-075A,2026-05-10T03:51:38.913120,1.00273003,.0003751,0.0689,357.0737,56.9059,284.6595,0,U,39034,999,4877,0,.108E-5,0
MEXSAT 3,2012-075B,2026-05-10T00:26:24.093888,1.00269567,.0001418,0.0171,267.7445,164.5665,47.3372,0,U,39035,999,667,0,-.17E-6,0
COSMOS 2482 (RODNIK-S 4),2013-001A,2026-05-10T03:05:35.297664,12.42996022,.0028753,82.4983,244.0301,108.0854,252.3361,0,U,39057,999,60398,.14615E-2,.213E-5,0
COSMOS 2483 (RODNIK-S 5),2013-001B,2026-05-10T05:40:52.320288,12.44024472,.0017804,82.4998,238.5533,96.7547,263.5560,0,U,39058,999,59687,.94297E-3,.143E-5,0
COSMOS 2484 (RODNIK-S 6),2013-001C,2026-05-10T05:36:18.567936,12.42938627,.0027493,82.5016,245.4865,116.4102,243.9804,0,U,39059,999,60384,.10253E-2,.152E-5,0
TDRS 11,2013-004A,2026-05-10T04:14:12.476256,1.00269335,.0005353,3.4661,30.6103,7.5829,78.9344,0,U,39070,999,4631,0,.89E-6,0
GLOBALSTAR M097,2013-005A,2026-05-09T23:53:43.696896,12.62250877,.0000582,52.0078,359.5910,89.4714,270.6220,0,U,39072,999,61208,-.21405E-3,-.142E-5,0
GLOBALSTAR M093,2013-005B,2026-05-10T01:09:51.054912,12.62264916,.0000476,52.0126,352.7650,86.4544,273.6377,0,U,39073,999,61204,.4266E-4,-.96E-6,0
GLOBALSTAR M094,2013-005C,2026-05-10T01:09:52.183296,12.62268127,.0000521,51.9959,266.9200,134.9335,225.1574,0,U,39074,999,61365,.65742E-4,-.92E-6,0
GLOBALSTAR M096,2013-005D,2026-05-09T23:35:04.945632,12.62264719,.0000684,52.0084,315.8920,110.3656,249.7284,0,U,39075,999,61256,.75362E-4,-.9E-6,0
GLOBALSTAR M078,2013-005E,2026-05-10T02:44:06.315072,12.62261864,.000094,51.9896,39.5502,141.9827,218.1106,0,U,39076,999,61120,.40038E-3,-.32E-6,0
GLOBALSTAR M095,2013-005F,2026-05-09T23:34:38.923680,12.62267422,.0000374,52.0103,37.5020,106.7432,253.3476,0,U,39077,999,61104,.3961E-4,-.97E-6,0
AMAZONAS 3,2013-006A,2026-05-10T04:07:02.498880,1.00270684,.0001385,0.0310,145.0183,269.9817,173.7574,0,U,39078,999,4453,0,-.273E-5,0
AZERSPACE 1,2013-006B,2026-05-10T03:59:38.838336,1.00272862,.0000961,0.0406,88.2119,338.9890,266.6712,0,U,39079,999,4842,0,.142E-5,0
LANDSAT 8,2013-008A,2026-05-10T04:30:30.043008,14.57141896,.0001342,98.1841,200.8735,103.4706,256.6642,0,U,39084,999,69236,.55151E-4,.204E-5,0
SARAL,2013-009A,2026-05-10T04:37:16.738176,14.32846533,.0002717,98.5563,317.2406,57.7690,302.3757,0,U,39086,999,69016,.32772E-4,.46E-6,0
SAPPHIRE,2013-009C,2026-05-10T02:20:15.254592,14.35229993,.0011302,98.4255,310.4595,8.8518,351.2865,0,U,39088,999,69111,.39118E-4,.69E-6,0
